[{"OBJECT_NAME":"STARLINK-30109","OBJECT_ID":"2023-056N","EPOCH":"2026-03-09T22:00:01.999584","MEAN_MOTION":15.25380147,"ECCENTRICITY":0.00014702,"INCLINATION":42.9996,"RA_OF_ASC_NODE":207.3396,"ARG_OF_PERICENTER":277.6687,"MEAN_ANOMALY":214.2238,"EPHEMERIS_TYPE":0,"CLASSIFICATION_TYPE":"U","NORAD_CAT_ID":56298,"ELEMENT_SET_NO":999,"REV_AT_EPOCH":553,"BSTAR":0.034557724,"MEAN_MOTION_DOT":0.00964696,"MEAN_MOTION_DDOT":0},{"OBJECT_NAME":"COSMOS 1953","OBJECT_ID":"1988-050A","EPOCH":"2026-03-09T18:09:26.993952","MEAN_MOTION":15.28528086,"ECCENTRICITY":0.00124769,"INCLINATION":82.5105,"RA_OF_ASC_NODE":158.18,"ARG_OF_PERICENTER":122.2454,"MEAN_ANOMALY":237.9996,"EPHEMERIS_TYPE":0,"CLASSIFICATION_TYPE":"U","NORAD_CAT_ID":19210,"ELEMENT_SET_NO":999,"REV_AT_EPOCH":3779,"BSTAR":0.00029210954,"MEAN_MOTION_DOT":8.158e-5,"MEAN_MOTION_DDOT":0}]
